     2              NAVIGATION DATA                         RINEX VERSION / TYPE
CCRINEXN V1.6.0 UX  CDDIS               30-JUL-12 11:30     PGM / RUN BY / DATE 
IGS BROADCAST EPHEMERIS FILE                                COMMENT             
    0.9313D-08  0.2235D-07 -0.5960D-07 -0.1192D-06          ION ALPHA           
    0.1004D+06  0.1311D+06 -0.6554D+05 -0.4588D+06          ION BETA            
   -0.279396772385D-08-0.142108547152D-13   147456      675 DELTA-UTC: A0,A1,T,W
    16                                                      LEAP SECONDS        
                                                            END OF HEADER       
 3 12  7 28 14  0  0.0 0.810204073787D-04 0.477484718431D-11 0.000000000000D+00
    0.990000000000D+02-0.216875000000D+02 0.500056543648D-08-0.178765023862D+01
   -0.106543302536D-05 0.156116285361D-01 0.899657607079D-05 0.515372929954D+04
    0.568800000000D+06 0.329688191414D-06 0.286480024947D+01 0.577419996262D-07
    0.932099638126D+00 0.188031250000D+03 0.121178029750D+01-0.804140638542D-08
    0.327513642258D-09 0.100000000000D+01 0.169800000000D+04 0.000000000000D+00
    0.280000000000D+01 0.000000000000D+00-0.465661287308D-08 0.990000000000D+02
    0.561618000000D+06 0.400000000000D+01 0.000000000000D+00 0.000000000000D+00
 4 12  7 28 14  0  0.0 0.257323496044D-03 0.113686837722D-10 0.000000000000D+00
    0.117000000000D+03-0.562500000000D+01 0.532736476327D-08 0.127418857441D+01
   -0.227242708206D-06 0.100848152069D-01 0.701099634171D-05 0.515362339973D+04
    0.568800000000D+06-0.141561031342D-06-0.223703580278D+01 0.149011611938D-07
    0.937593356332D+00 0.237843750000D+03 0.874521928423D+00-0.844106588999D-08
   -0.205008539429D-09 0.100000000000D+01 0.169800000000D+04 0.000000000000D+00
    0.200000000000D+01 0.000000000000D+00-0.651925802231D-08 0.117000000000D+03
    0.561600000000D+06 0.000000000000D+00 0.000000000000D+00 0.000000000000D+00
 5 12  7 28 14  0  0.0-0.338654499501D-03-0.329691829393D-11 0.000000000000D+00
    0.930000000000D+02 0.422187500000D+02 0.455126100686D-08 0.189688346721D+00
    0.225566327572D-05 0.274764047936D-02 0.102948397398D-04 0.515371420288D+04
    0.568800000000D+06 0.521540641785D-07-0.118987418182D+01-0.260770320892D-07
    0.950229217615D+00 0.174000000000D+03 0.193722561299D+00-0.799140430264D-08
   -0.352514683652D-09 0.000000000000D+00 0.169800000000D+04 0.000000000000D+00
    0.200000000000D+01 0.000000000000D+00-0.102445483208D-07 0.930000000000D+02
    0.561600000000D+06 0.400000000000D+01 0.000000000000D+00 0.000000000000D+00
 6 12  7 28 14  0  0.0 0.431202352047D-06-0.579802872380D-11 0.000000000000D+00
    0.690000000000D+02-0.251875000000D+02 0.497592155282D-08 0.848644600197D-01
   -0.145658850670D-05 0.734717980959D-02 0.902265310287D-05 0.515368673134D+04
    0.568800000000D+06 0.670552253723D-07 0.294187975875D+01-0.128522515297D-06
    0.938948571457D+00 0.196750000000D+03-0.483095730282D+00-0.828355932921D-08
    0.289654922433D-09 0.100000000000D+01 0.169800000000D+04 0.000000000000D+00
    0.200000000000D+01 0.000000000000D+00-0.512227416039D-08 0.690000000000D+02
    0.568788000000D+06 0.400000000000D+01 0.000000000000D+00 0.000000000000D+00
 7 12  7 28 14  0  0.0 0.105013139546D-03 0.386535248253D-11 0.000000000000D+00
    0.880000000000D+02-0.195312500000D+02 0.445661420730D-08 0.298717925260D+01
   -0.929459929466D-06 0.574651965872D-02 0.272318720818D-05 0.515372938538D+04
    0.568800000000D+06-0.128522515297D-06 0.921806814234D+00-0.726431608200D-07
    0.975859950518D+00 0.337218750000D+03-0.302231145849D+01-0.816605443466D-08
   -0.185722021782D-10 0.100000000000D+01 0.169800000000D+04 0.000000000000D+00
    0.200000000000D+01 0.000000000000D+00-0.107102096081D-07 0.880000000000D+02
    0.568368000000D+06 0.400000000000D+01 0.000000000000D+00 0.000000000000D+00
 8 12  7 28 14  0  0.0 0.183796510100D-05 0.113686837722D-12 0.000000000000D+00
    0.920000000000D+02-0.357812500000D+02 0.401302430143D-08 0.228115947623D+01
   -0.177882611752D-05 0.125103723258D-01 0.300630927086D-05 0.515366616821D+04
    0.568800000000D+06-0.339001417160D-06 0.100647725182D+01 0.165775418282D-06
    0.998083165393D+00 0.345125000000D+03-0.295651917850D+01-0.801926260591D-08
   -0.932181686252D-10 0.000000000000D+00 0.169800000000D+04 0.000000000000D+00
    0.200000000000D+01 0.000000000000D+00-0.419095158577D-08 0.920000000000D+02
    0.561600000000D+06 0.400000000000D+01 0.000000000000D+00 0.000000000000D+00
10 12  7 28 14  0  0.0-0.463193282485D-04-0.125055521494D-11 0.000000000000D+00
    0.370000000000D+02 0.435000000000D+02 0.476198407004D-08 0.420564818419D+00
    0.227801501751D-05 0.114114800235D-01 0.100266188383D-04 0.515371436119D+04
    0.568800000000D+06-0.540167093277D-07-0.116865853569D+01 0.163912773132D-06
    0.945111270398D+00 0.180218750000D+03 0.751835408208D+00-0.818391232137D-08
   -0.393944980818D-09 0.000000000000D+00 0.169800000000D+04 0.000000000000D+00
    0.200000000000D+01 0.000000000000D+00-0.232830643654D-08 0.370000000000D+02
    0.561600000000D+06 0.400000000000D+01 0.000000000000D+00 0.000000000000D+00
11 12  7 28 14  0  0.0-0.286345835775D-03-0.386535248253D-11 0.000000000000D+00
    0.640000000000D+02-0.528125000000D+01 0.631526305606D-08 0.307635746305D+01
   -0.283122062683D-06 0.131884189323D-01 0.576674938202D-05 0.515367293739D+04
    0.568800000000D+06 0.856816768646D-07-0.251331252681D+01-0.150874257088D-06
    0.888316202850D+00 0.227187500000D+03 0.106745598858D+01-0.869607651221D-08
    0.114290474943D-09 0.100000000000D+01 0.169800000000D+04 0.000000000000D+00
    0.200000000000D+01 0.000000000000D+00-0.121071934700D-07 0.640000000000D+02
    0.561618000000D+06 0.400000000000D+01 0.000000000000D+00 0.000000000000D+00
12 12  7 28 14  0  0.0 0.823712907731D-04 0.204636307899D-11 0.000000000000D+00
    0.440000000000D+02-0.123312500000D+03 0.385908931799D-08 0.260221916261D+01
   -0.641308724880D-05 0.403562269639D-02 0.861845910549D-05 0.515376070213D+04
    0.568800000000D+06-0.931322574615D-07 0.197894195965D+01 0.260770320892D-07
    0.980430776614D+00 0.223781250000D+03 0.122698438608D+00-0.772067874012D-08
   -0.832177520677D-10 0.000000000000D+00 0.169800000000D+04 0.000000000000D+00
    0.200000000000D+01 0.000000000000D+00-0.121071934700D-07 0.440000000000D+02
    0.562650000000D+06 0.400000000000D+01 0.000000000000D+00 0.000000000000D+00
13 12  7 28 14  0  0.0 0.191696919501D-03-0.250111042988D-11 0.000000000000D+00
    0.160000000000D+02 0.100218750000D+03 0.407088385437D-08-0.108517984091D+01
    0.513717532158D-05 0.491113495082D-02 0.621564686298D-05 0.515363963890D+04
    0.568800000000D+06-0.242143869400D-07-0.476662363701D-01 0.260770320892D-07
    0.985356936734D+00 0.280187500000D+03 0.205393966189D+01-0.795961726429D-08
    0.224652214809D-09 0.100000000000D+01 0.169800000000D+04 0.000000000000D+00
    0.200000000000D+01 0.000000000000D+00-0.111758708954D-07 0.160000000000D+02
    0.561618000000D+06 0.400000000000D+01 0.000000000000D+00 0.000000000000D+00
14 12  7 28 14  0  0.0 0.208323821425D-03 0.125055521494D-11 0.000000000000D+00
    0.840000000000D+02 0.106062500000D+03 0.423089051929D-08-0.836082636758D+00
    0.571832060814D-05 0.660682527814D-02 0.673718750477D-05 0.515361952019D+04
    0.568800000000D+06-0.596046447754D-07-0.747768630536D-01 0.134110450745D-06
    0.978156731903D+00 0.260437500000D+03-0.206595476461D+01-0.802247702551D-08
    0.191793703263D-09 0.100000000000D+01 0.169800000000D+04 0.000000000000D+00
    0.200000000000D+01 0.000000000000D+00-0.931322574616D-08 0.840000000000D+02
    0.561618000000D+06 0.400000000000D+01 0.000000000000D+00 0.000000000000D+00
15 12  7 28 14  0  0.0-0.930107198656D-04-0.454747350886D-12 0.000000000000D+00
    0.380000000000D+02 0.125906250000D+03 0.486841707483D-08-0.128950153481D+01
    0.626593828201D-05 0.448028300889D-02 0.664405524731D-05 0.515360334206D+04
    0.568800000000D+06 0.167638063431D-07-0.164569449355D+00-0.109896063805D-06
    0.944905370530D+00 0.240562500000D+03 0.412522593050D-01-0.832963267692D-08
    0.236081262304D-09 0.000000000000D+00 0.169800000000D+04 0.000000000000D+00
    0.200000000000D+01 0.000000000000D+00-0.102445483208D-07 0.380000000000D+02
    0.561600000000D+06 0.400000000000D+01 0.000000000000D+00 0.000000000000D+00
16 12  7 28 14  0  0.0-0.242286361754D-03-0.102318153950D-11 0.000000000000D+00
    0.950000000000D+02-0.906250000000D+02 0.395016454021D-08 0.364182103589D+00
   -0.482238829136D-05 0.656607770361D-02 0.774487853050D-05 0.515372098541D+04
    0.568800000000D+06 0.949949026108D-07 0.199713988229D+01 0.149011611938D-07
    0.981247627645D+00 0.238625000000D+03 0.224244641261D-01-0.787854245863D-08
   -0.127862468842D-09 0.100000000000D+01 0.169800000000D+04 0.000000000000D+00
    0.200000000000D+01 0.000000000000D+00-0.977888703346D-08 0.950000000000D+02
    0.564528000000D+06 0.400000000000D+01 0.000000000000D+00 0.000000000000D+00
17 12  7 28 14  0  0.0 0.109715852886D-03-0.306954461848D-11 0.000000000000D+00
    0.710000000000D+02-0.163750000000D+02 0.458233372974D-08-0.558908081862D+00
   -0.897794961929D-06 0.744087877683D-02 0.883266329765D-05 0.515371392822D+04
    0.568800000000D+06 0.298023223877D-07 0.303694613547D+01 0.160187482834D-06
    0.963706939977D+00 0.212781250000D+03-0.229624947621D+01-0.808426531353D-08
    0.347157317639D-09 0.100000000000D+01 0.169800000000D+04 0.000000000000D+00
    0.200000000000D+01 0.000000000000D+00-0.107102096081D-07 0.710000000000D+02
    0.561618000000D+06 0.400000000000D+01 0.000000000000D+00 0.000000000000D+00
